LEMUR-1                 
1 40044U 14033AL  26192.88323400  .00000888  00000+0  10759-3 0  9999
2 40044  97.7903 342.1444 0048047 358.8650   1.2448 14.85331099649134
LEMUR-2-GREENBERG       
1 42837U 17042N   26190.49536315  .00011532  00000+0  37497-3 0  9996
2 42837  97.3831  11.0293 0007135 283.6729  76.3718 15.32031511491802
LEMUR-2-ANDIS           
1 42838U 17042P   26193.46919441  .00012815  00000+0  36920-3 0  9997
2 42838  97.3674  14.2674 0007132 269.8003  90.2423 15.35849981492332
LEMUR-2-MONSON          
1 42839U 17042Q   26191.46928106  .00009600  00000+0  34677-3 0  9999
2 42839  97.4089  11.9359 0005156 266.7916  93.2733 15.28674858491721
LEMUR-2-FURIAUS         
1 42840U 17042R   26193.44556340  .00010642  00000+0  35675-3 0  9995
2 42840  97.3775  11.8672 0006239 340.6601  19.4403 15.31072029492076
LEMUR-2-PETERG          
1 42841U 17042S   26194.25076633  .00012587  00000+0  37306-3 0  9991
2 42841  97.3989  19.3442 0003174 228.3725 131.7247 15.34983018492432
LEMUR-2-DEMBITZ         
1 42842U 17042T   26193.92276445  .00012588  00000+0  42161-3 0  9994
2 42842  97.3822  15.3838 0005053 284.9357  75.1324 15.31066311492286
LEMUR-2-ZACHARY         
1 42845U 17042W   26193.47424905  .00031926  00000+0  52090-3 0  9992
2 42845  97.3575  25.6887 0002460 261.6834  98.4140 15.52533794493128
LEMUR-2-AMANDA-SVANTE   
1 48269U 21034B   26193.77964350  .00025852  00000+0  74134-3 0  9994
2 48269  97.5758 272.7671 0004530 149.3541 210.7967 15.35862163284986
LEMUR-2-SPECIAL-K       
1 48273U 21034F   26193.79103831  .00224827  00000+0  15540-2 0  9998
2 48273  97.5640 282.6731 0006209 216.3246 143.7597 15.73857408285703
LEMUR-2-EMBRIONOVIS     
1 56970U 23084AQ  26193.83808458  .00009780  00000+0  26205-3 0  9990
2 56970  97.6313 339.0377 0008096 215.5388 144.5318 15.38191733171629
LEMUR-2-DEVERILL-M-T    
1 57391U 23100F   26194.02321249  .00019765  00000+0  48096-3 0  9993
2 57391  99.4456 240.2682 0004659 306.5620  53.5190 15.41024565165226
LEMUR-2-BASS            
1 58259U 23174D   26193.94739668  .00013088  00000+0  28921-3 0  9993
2 58259  97.3851 279.0335 0007768  85.0548 275.1587 15.43947109149339
LEMUR-2-JK0903EM1407    
1 58336U 23174CJ  26194.05709345  .00020824  00000+0  33514-3 0  9991
2 58336  97.3925 285.2802 0003816  41.2972 318.8569 15.52994867149743
LEMUR-2-MJR092620       
1 58340U 23174CN  26194.25396332  .00012086  00000+0  25102-3 0  9991
2 58340  97.3982 284.7794 0005478  36.7189 323.4434 15.45816527149673
LEMUR-2-NIMBUS2000      
1 58899U 24022A   26194.06084707  .00014985  00000+0  36407-3 0  9992
2 58899  97.4085  44.4028 0008972  35.7134 324.4711 15.41057273136259
